NORAD_CAT_ID,OBJECT_NAME,OBJECT_TYPE,EPOCH,MEAN_MOTION,ECCENTRICITY,INCLINATION,RA_OF_ASC_NODE,ARG_OF_PERICENTER,MEAN_ANOMALY,BSTAR,MEAN_MOTION_DOT,MEAN_MOTION_DDOT,TLE_LINE0,TLE_LINE1,TLE_LINE2,SEMIMAJOR_AXIS,PERIOD,APOGEE,PERIGEE,DECAYED
52455.0,STARLINK-3890,PAYLOAD,2024-07-20 08:22:23,15.08843219,0.0001407,53.2159,230.6912,86.421,273.6943,6.3216e-05,7.18e-06,0.0,0 STARLINK-3890,1 52455U 22049E   24202.34888000  .00000718  00000-0  63216-4 0  9997,2 52455  53.2159 230.6912 0001407  86.4210 273.6943 15.08843219121935,6917.871,95.437,540.709,538.762,0.0
52455.0,STARLINK-3890,PAYLOAD,2024-07-20 19:30:04,15.08847933,0.0001413,53.216,228.6091,87.6302,272.4852,0.00010901,1.448e-05,0.0,0 STARLINK-3890,1 52455U 22049E   24202.81255486  .00001448  00000-0  10901-3 0  9998,2 52455  53.2160 228.6091 0001413  87.6302 272.4852 15.08847933122006,6917.856,95.437,540.699,538.744,0.0
52455.0,STARLINK-3890,PAYLOAD,2024-07-21 01:51:37,15.08841805,0.0001625,53.2157,227.4171,95.7848,264.3329,2.0907e-06,-2.55e-06,0.0,0 STARLINK-3890,1 52455U 22049E   24203.07752100 -.00000255  00000-0  20907-5 0  9997,2 52455  53.2157 227.4171 0001625  95.7848 264.3329 15.08841805122201,6917.875,95.437,540.864,538.616,0.0
52455.0,STARLINK-3890,PAYLOAD,2024-07-21 08:13:10,15.08836788,0.00016,53.2159,226.2276,95.6703,264.4472,-5.0773e-05,-1.096e-05,0.0,0 STARLINK-3890,1 52455U 22049E   24203.34248473 -.00001096  00000-0 -50773-4 0  9998,2 52455  53.2159 226.2276 0001600  95.6703 264.4472 15.08836788122088,6917.89,95.438,540.862,538.648,0.0
52455.0,STARLINK-3890,PAYLOAD,2024-07-22 11:14:43,15.08840914,0.0001517,53.2163,221.1724,104.1667,255.9494,2.6368e-05,1.32e-06,0.0,0 STARLINK-3890,1 52455U 22049E   24204.46856007  .00000132  00000-0  26368-4 0  9991,2 52455  53.2163 221.1724 0001517 104.1667 255.9494 15.08840914122419,6917.878,95.437,540.792,538.693,0.0
52455.0,STARLINK-3890,PAYLOAD,2024-07-23 07:54:44,15.088366,0.0001335,53.2154,217.3089,88.5258,271.5887,0.00014542,2.027e-05,0.0,0 STARLINK-3890,1 52455U 22049E   24205.32968247  .00002027  00000-0  14542-3 0  9992,2 52455  53.2154 217.3089 0001335  88.5258 271.5887 15.08836600122382,6917.891,95.438,540.679,538.832,0.0
52455.0,STARLINK-3890,PAYLOAD,2024-07-24 04:34:45,15.08836066,0.0001341,53.2152,213.4431,85.3686,274.7459,1.8701e-05,1e-07,0.0,0 STARLINK-3890,1 52455U 22049E   24206.19080833  .00000010  00000-0  18701-4 0  9996,2 52455  53.2152 213.4431 0001341  85.3686 274.7459 15.08836066122673,6917.892,95.438,540.685,538.83,0.0
52455.0,STARLINK-3890,PAYLOAD,2024-07-24 07:45:32,15.08834368,0.0001332,53.2154,212.8483,84.893,275.2214,-2.9176e-06,-3.34e-06,0.0,0 STARLINK-3890,1 52455U 22049E   24206.32329002 -.00000334  00000-0 -29176-5 0  9995,2 52455  53.2154 212.8483 0001332  84.8930 275.2214 15.08834368122534,6917.898,95.438,540.684,538.841,0.0
52455.0,STARLINK-3890,PAYLOAD,2024-07-25 06:00:56,15.08837598,0.0001359,53.2156,208.6858,87.4823,272.6325,4.9738e-05,5.04e-06,0.0,0 STARLINK-3890,1 52455U 22049E   24207.25064891  .00000504  00000-0  49738-4 0  9992,2 52455  53.2156 208.6858 0001359  87.4823 272.6325 15.08837598122671,6917.888,95.438,540.693,538.813,0.0
52455.0,STARLINK-3890,PAYLOAD,2024-07-25 09:11:42,15.08839631,0.0001375,53.2157,208.0915,90.029,270.0859,6.5649e-05,7.57e-06,0.0,0 STARLINK-3890,1 52455U 22049E   24207.38312736  .00000757  00000-0  65649-4 0  9999,2 52455  53.2157 208.0915 0001375  90.0290 270.0859 15.08839631122850,6917.882,95.438,540.698,538.795,0.0
52455.0,STARLINK-3890,PAYLOAD,2024-07-26 09:02:28,15.08842544,0.0001395,53.2159,203.6271,87.989,272.1262,0.00015219,2.135e-05,0.0,0 STARLINK-3890,1 52455U 22049E   24208.37672299  .00002135  00000-0  15219-3 0  9991,2 52455  53.2159 203.6271 0001395  87.9890 272.1262 15.08842544122848,6917.873,95.437,540.703,538.773,0.0
52455.0,STARLINK-3890,PAYLOAD,2024-07-26 16:59:24,15.08845593,0.0001419,53.2158,202.1432,88.6979,271.4176,0.00014545,2.028e-05,0.0,0 STARLINK-3890,1 52455U 22049E   24208.70792089  .00002028  00000-0  14545-3 0  9990,2 52455  53.2158 202.1432 0001419  88.6979 271.4176 15.08845593123050,6917.863,95.437,540.71,538.747,0.0
52455.0,STARLINK-3890,PAYLOAD,2024-07-27 05:42:29,15.08841196,0.0001367,53.2152,199.7648,92.7087,267.4061,4.0728e-05,3.6e-06,0.0,0 STARLINK-3890,1 52455U 22049E   24209.23784600  .00000360  00000-0  40728-4 0  9999,2 52455  53.2152 199.7648 0001367  92.7087 267.4061 15.08841196123134,6917.877,95.437,540.687,538.796,0.0
52455.0,STARLINK-3890,PAYLOAD,2024-07-28 23:02:31,15.0883851,0.0001391,53.2156,192.032,94.7863,265.3288,4.6994e-05,4.6e-06,0.0,0 STARLINK-3890,1 52455U 22049E   24210.96008432  .00000460  00000-0  46994-4 0  9995,2 52455  53.2156 192.0320 0001391  94.7863 265.3288 15.08838510123237,6917.885,95.438,540.712,538.788,0.0
52455.0,STARLINK-3890,PAYLOAD,2024-07-29 05:24:03,15.08837551,0.0001424,53.2158,190.8417,98.024,262.0913,2.9566e-05,1.83e-06,0.0,0 STARLINK-3890,1 52455U 22049E   24211.22504547  .00000183  00000-0  29566-4 0  9991,2 52455  53.2158 190.8417 0001424  98.0240 262.0913 15.08837551123430,6917.888,95.438,540.738,538.768,0.0
52455.0,STARLINK-3890,PAYLOAD,2024-07-29 22:53:18,15.0883546,0.0001426,53.216,187.5693,98.6278,261.4876,4.3914e-05,4.11e-06,0.0,0 STARLINK-3890,1 52455U 22049E   24211.95368715  .00000411  00000-0  43914-4 0  9993,2 52455  53.2160 187.5693 0001426  98.6278 261.4876 15.08835460123383,6917.894,95.438,540.746,538.773,0.0
52455.0,STARLINK-3890,PAYLOAD,2024-07-30 05:14:51,15.08836668,0.0001385,53.2163,186.3822,95.3423,264.7727,4.3137e-05,3.99e-06,0.0,0 STARLINK-3890,1 52455U 22049E   24212.21864747  .00000399  00000-0  43137-4 0  9991,2 52455  53.2163 186.3822 0001385  95.3423 264.7727 15.08836668123424,6917.891,95.438,540.714,538.797,0.0
52455.0,STARLINK-3890,PAYLOAD,2024-07-30 21:08:42,15.0883518,0.0001443,53.2185,183.4133,96.5573,263.5583,0.00010033,1.309e-05,0.0,0 STARLINK-3890,1 52455U 22049E   24212.88104819  .00001309  00000-0  10033-3 0  9991,2 52455  53.2185 183.4133 0001443  96.5573 263.5583 15.08835180123688,6917.895,95.438,540.758,538.762,0.0
52455.0,STARLINK-3890,PAYLOAD,2024-07-31 05:05:38,15.0883025,0.0001363,53.2163,181.9231,92.4174,267.6974,2.7987e-05,1.57e-06,0.0,0 STARLINK-3890,1 52455U 22049E   24213.21225561  .00000157  00000-0  27987-4 0  9994,2 52455  53.2163 181.9231 0001363  92.4174 267.6974 15.08830250123579,6917.91,95.438,540.718,538.832,0.0
52455.0,STARLINK-3890,PAYLOAD,2024-07-31 20:59:29,15.0883697,0.0001424,53.2173,178.9504,99.1021,261.0133,8.3263e-05,1.037e-05,0.0,0 STARLINK-3890,1 52455U 22049E   24213.87465197  .00001037  00000-0  83263-4 0  9994,2 52455  53.2173 178.9504 0001424  99.1021 261.0133 15.08836970123831,6917.89,95.438,540.74,538.77,0.0
52455.0,STARLINK-3890,PAYLOAD,2024-08-01 14:28:43,15.08854202,0.000143,53.2176,175.678,89.3197,270.7959,0.0001684,2.394e-05,0.0,0 STARLINK-3890,1 52455U 22049E   24214.60327964  .00002394  00000-0  16840-3 0  9998,2 52455  53.2176 175.6780 0001430  89.3197 270.7959 15.08854202123781,6917.837,95.437,540.691,538.713,0.0
52455.0,STARLINK-3890,PAYLOAD,2024-08-02 04:47:13,15.0883509,0.0001453,53.2164,172.9991,74.8344,285.2809,6.6083e-05,7.64e-06,0.0,0 STARLINK-3890,1 52455U 22049E   24215.19945772  .00000764  00000-0  66083-4 0  9990,2 52455  53.2164 172.9991 0001453  74.8344 285.2809 15.08835090124038,6917.895,95.438,540.766,538.755,0.0
52455.0,STARLINK-3890,PAYLOAD,2024-08-02 14:19:31,15.08849489,0.0001538,53.2169,171.2181,80.2551,279.8614,0.00013925,1.929e-05,0.0,0 STARLINK-3890,1 52455U 22049E   24215.59688736  .00001929  00000-0  13925-3 0  9998,2 52455  53.2169 171.2181 0001538  80.2551 279.8614 15.08849489123939,6917.851,95.437,540.78,538.652,0.0
52455.0,STARLINK-3890,PAYLOAD,2024-08-03 03:02:37,15.08833421,0.0001182,53.2172,168.8386,81.5657,278.5469,6.3049e-05,7.16e-06,0.0,0 STARLINK-3890,1 52455U 22049E   24216.12681968  .00000716  00000-0  63049-4 0  9994,2 52455  53.2172 168.8386 0001182  81.5657 278.5469 15.08833421124178,6917.9,95.438,540.583,538.948,0.0
52455.0,STARLINK-3890,PAYLOAD,2024-08-03 06:13:22,15.08845311,0.0001292,53.2147,168.2392,87.5938,272.5202,8.209e-05,1.019e-05,0.0,0 STARLINK-3890,1 52455U 22049E   24216.25929067  .00001019  00000-0  82090-4 0  9997,2 52455  53.2147 168.2392 0001292  87.5938 272.5202 15.08845311124193,6917.864,95.437,540.623,538.835,0.0
52455.0,STARLINK-3890,PAYLOAD,2024-08-03 14:10:17,15.08852112,0.000147,53.2156,166.758,79.1175,280.9983,0.00013334,1.835e-05,0.0,0 STARLINK-3890,1 52455U 22049E   24216.59048601  .00001835  00000-0  13334-3 0  9990,2 52455  53.2156 166.7580 0001470  79.1175 280.9983 15.08852112124087,6917.843,95.437,540.725,538.691,0.0
52455.0,STARLINK-3890,PAYLOAD,2024-08-04 02:53:23,15.08841409,0.0001776,53.2158,164.3763,96.4295,263.69,0.00019859,2.874e-05,0.0,0 STARLINK-3890,1 52455U 22049E   24217.12041437  .00002874  00000-0  19859-3 0  9992,2 52455  53.2158 164.3763 0001776  96.4295 263.6900 15.08841409124321,6917.876,95.437,540.97,538.512,0.0
52455.0,STARLINK-3890,PAYLOAD,2024-08-04 14:01:04,15.08857747,0.0001518,53.2162,162.2934,94.2932,265.8234,0.00030283,4.537e-05,0.0,0 STARLINK-3890,1 52455U 22049E   24217.58408425  .00004537  00000-0  30283-3 0  9998,2 52455  53.2162 162.2934 0001518  94.2932 265.8234 15.08857747124237,6917.826,95.436,540.741,538.641,0.0
52455.0,STARLINK-3890,PAYLOAD,2024-08-05 02:44:10,15.08855654,0.0001525,53.2157,159.9173,88.0945,272.0222,0.00045229,6.921e-05,0.0,0 STARLINK-3890,1 52455U 22049E   24218.11400725  .00006921  00000-0  45229-3 0  9998,2 52455  53.2157 159.9173 0001525  88.0945 272.0222 15.08855654124470,6917.833,95.437,540.753,538.643,0.0
52455.0,STARLINK-3890,PAYLOAD,2024-08-06 02:34:58,15.08811143,0.0001417,53.2163,155.4546,106.8873,253.2274,-0.00021823,-3.757e-05,0.0,0 STARLINK-3890,1 52455U 22049E   24219.10761989 -.00003757  00000-0 -21823-3 0  9990,2 52455  53.2163 155.4546 0001417 106.8873 253.2274 15.08811143124621,6917.969,95.439,540.814,538.853,0.0
